Zipcode,ParkName,ParkType,ParkServiceArea,PSAManager,email,Number,Acreage,SupDist,ParkID,Location 1,Lat,Long,size,neighborhood
94044,SHARP PARK,Regional Park,Outside SF,"Castile, Steve",steve.castile@sfgov.org,(415) 841-0856,409.69,NA,10380,"1 Sharp Park Rd Pacifica, CA (37.62439438, -122.48189132)",37.62439438,-122.48189132,size_huge,Pacifica
94102,PAGE/LAGUNA MINI PARK,Mini Park,PSA 2,"O'Connor, Tom",tom.o'connor@sfgov.org,(415) 218-0259,0.15,5,114,"Page San Francisco, CA (37.77346139, -122.42524781)",37.77346139,-122.42524781,size_tiny,Hayes Valley/Tenderloin
94102,JEFFERSON SQUARE,Neighborhood Park or Playground,PSA 2,"O'Connor, Tom",tom.o'connor@sfgov.org,(415) 218-0259,5.64,6,122,"Eddy San Francisco, CA (37.78180034, -122.42565792)",37.78180034,-122.42565792,size_large,Hayes Valley/Tenderloin
94102,HAYES VALLEY PLAYGROUND,Neighborhood Park or Playground,PSA 2,"O'Connor, Tom",tom.o'connor@sfgov.org,(415) 218-0259,0.61,5,116,"Hayes San Francisco, CA (37.77606034, -122.42736714)",37.77606034,-122.42736714,size_small,Hayes Valley/Tenderloin
94102,MARGARET S HAYWARD PLAYGROUND,Neighborhood Park or Playground,PSA 2,"O'Connor, Tom",tom.o'connor@sfgov.org,(415) 218-0259,5.03,6,119,"1016 Laguna San Francisco, CA (37.78084683, -122.425427)",37.78084683,-122.425427,size_large,Hayes Valley/Tenderloin
94102,PAGE ST. COMMUNITY GARDEN,Community Garden,PSA 2,"O'Connor, Tom",tom.o'connor@sfgov.org,(415) 218-0259,0.08,5,11976,"438 Page St San Francisco, CA (37.77362331, -122.42810149)",37.77362331,-122.42810149,size_tiny,Hayes Valley/Tenderloin
94102,FATHER ALFRED E. BOEDDEKER PARK,Neighborhood Park or Playground,PSA 2,"Hill, Eric",eric.hill@sfgov.org,(415) 254-8030,0.97,6,134,"295 Eddy St San Francisco, CA (37.78439513, -122.4120591)",37.78439513,-122.4120591,size_average,Hayes Valley/Tenderloin
94102,KOSHLAND PARK,Neighborhood Park or Playground,PSA 2,"O'Connor, Tom",tom.o'connor@sfgov.org,(415) 218-0259,0.82,5,115,"Page San Francisco, CA (37.77324835, -122.42672942)",37.77324835,-122.42672942,size_average,Hayes Valley/Tenderloin
94102,BUCHANAN STREET MALL,Neighborhood Park or Playground,PSA 2,"O'Connor, Tom",tom.o'connor@sfgov.org,(415) 218-0259,1.81,5,121,"Buchanan San Francisco, CA (37.77949531, -122.42856481)",37.77949531,-122.42856481,size_average,Hayes Valley/Tenderloin
94102,PATRICIAS GREEN IN HAYES VALLEY,Mini Park,PSA 2,"O'Connor, Tom",tom.o'connor@sfgov.org,(415) 218-0259,0.45,5,59481,"btw Hayes San Francisco, CA (37.77622289, -122.42441307)",37.77622289,-122.42441307,size_small,Hayes Valley/Tenderloin
94102,TURK/HYDE MINI PARK,Mini Park,PSA 2,"Hill, Eric",eric.hill@sfgov.org,(415) 254-8030,0.11,6,192,"Hyde San Francisco, CA (37.78274031, -122.41596297)",37.78274031,-122.41596297,size_tiny,Hayes Valley/Tenderloin
94102,JOSEPH L. ALIOTO PERFORMING ARTS PIAZZA,Civic Plaza or Square,PSA 2,"Hill, Eric",eric.hill@sfgov.org,(415) 254-8030,5.38,6,118,"Grove San Francisco, CA (37.77948045, -122.4175995)",37.77948045,-122.4175995,size_large,Hayes Valley/Tenderloin
94103,HOWARD/LANGTON MINI PARK,Community Garden,PSA 2,"Hill, Eric",eric.hill@sfgov.org,(415) 254-8030,0.23,6,58,"Howard San Francisco, CA (37.77723739, -122.40981275)",37.77723739,-122.40981275,size_small,SoMa
94103,VICTORIA MANALO DRAVES PARK,Neighborhood Park or Playground,PSA 2,"Hill, Eric",eric.hill@sfgov.org,(415) 254-8030,2.52,6,169,"Folsom San Francisco, CA (37.77700947, -122.40595532)",37.77700947,-122.40595532,size_large,SoMa
94103,GENE FRIEND REC CENTER,Neighborhood Park or Playground,PSA 2,"Hill, Eric",eric.hill@sfgov.org,(415) 254-8030,1.02,6,57,"270 6th St San Francisco, CA (37.77863929, -122.40635191)",37.77863929,-122.40635191,size_average,SoMa
94105,GUY PLACE MINI PARK,Mini Park,PSA 2,"Hill, Eric",eric.hill@sfgov.org,(415) 254-8030,0,6,445358,"4 8 Guy Place San Francisco, CA (37.7750329000483, -122.41916720030605)",37.7750329000483,-122.41916720030605,size_tiny,Embarcadero South
94107,Arkansas Friendship Garden,Community Garden,PSA 2,"Hill, Eric",eric.hill@sfgov.org,(415) 254-8030,0.13,10,171727,"22nd/Arkansas, San Francisco, CA, (37.75737790, -122.39766207)",37.75737790,-122.39766207,size_tiny,Portrero Hill
94107,POTRERO HILL MINI PARK,Mini Park,PSA 2,"Hill, Eric",eric.hill@sfgov.org,(415) 254-8030,0.22,10,10416,"22nd San Francisco, CA (37.75744642, -122.3965207)",37.75744642,-122.3965207,size_small,Portrero Hill
94107,ESPRIT PARK,Neighborhood Park or Playground,PSA 2,"Hill, Eric",eric.hill@sfgov.org,(415) 254-8030,1.83,10,193,"Minnesota St, San Francisco, CA, (37.76098611, -122.39099369)",37.76098611,-122.39099369,size_average,Portrero Hill
94107,POTRERO HILL RECREATION CENTER,Neighborhood Park or Playground,PSA 2,"Hill, Eric",eric.hill@sfgov.org,(415) 254-8030,10.07,10,52,"801 Arkansas St San Francisco, CA (37.75613966, -122.39688179)",37.75613966,-122.39688179,size_huge,Portrero Hill
94107,Connecticut Friendship Garden,Community Garden,PSA 2,"Hill, Eric",eric.hill@sfgov.org,(415) 254-8030,0.14,10,171700,"22nd/Connecticut, San Francisco, CA, (37.75739852, -122.39731712)",37.75739852,-122.39731712,size_tiny,Portrero Hill
94107,SOUTH PARK,Neighborhood Park or Playground,PSA 2,"Hill, Eric",eric.hill@sfgov.org,(415) 254-8030,1.12,6,56,"64 Park Ave San Francisco, CA (37.78157949, -122.39395227)",37.78157949,-122.39395227,size_average,Portrero Hill
94107,JACKSON PLAYGROUND,Neighborhood Park or Playground,PSA 2,"Hill, Eric",eric.hill@sfgov.org,(415) 254-8030,4.41,10,54,"17th San Francisco, CA (37.7643148, -122.3996072)",37.7643148,-122.3996072,size_large,Portrero Hill
94107,MCKINLEY SQUARE,Neighborhood Park or Playground,PSA 2,"Hill, Eric",eric.hill@sfgov.org,(415) 254-8030,2.81,10,53,"20th St San Francisco, CA (37.75913976, -122.40469058)",37.75913976,-122.40469058,size_large,Portrero Hill
94108,WILLIE WOO WOO WONG PLAYGROUND,Neighborhood Park or Playground,PSA 1,"Cleveland, Maggie",maggie.cleveland@sfgov.org,(415) 254-8014,0.61,3,139,"Sacramento St, San Francisco, CA, (37.79358605, -122.40718489)",37.79358605,-122.40718489,size_small,Chinatown
94108,COLLIS P. HUNTINGTON PARK,Civic Plaza or Square,PSA 1,"Cleveland, Maggie",maggie.cleveland@sfgov.org,(415) 254-8014,1.07,3,137,"California San Francisco, CA (37.79216576, -122.41215294)",37.79216576,-122.41215294,size_average,Chinatown
94108,UNION SQUARE,Civic Plaza or Square,PSA 2,"Hill, Eric",eric.hill@sfgov.org,(415) 254-8030,2.6,3,135,"Post San Francisco, CA (37.78793122, -122.40750049)",37.78793122,-122.40750049,size_large,Chinatown
94108,ST MARY'S SQUARE,Civic Plaza or Square,PSA 1,"Cleveland, Maggie",maggie.cleveland@sfgov.org,(415) 254-8014,1.11,3,136,"California St San Francisco, CA (37.79205617, -122.40511712)",37.79205617,-122.40511712,size_average,Chinatown
94108,CHINESE RECREATION CENTER,Neighborhood Park or Playground,PSA 1,"Cleveland, Maggie",maggie.cleveland@sfgov.org,(415) 254-8014,0.65,3,140,"1101 Washington St San Francisco, CA (37.79420965, -122.41178577)",37.79420965,-122.41178577,size_small,Chinatown
94108,PORTSMOUTH SQUARE,Neighborhood Park or Playground,PSA 1,"Cleveland, Maggie",maggie.cleveland@sfgov.org,(415) 254-8014,1.29,3,141,"Washington San Francisco, CA (37.79483492, -122.40535067)",37.79483492,-122.40535067,size_average,Chinatown
94108,Hooker Alley Community Garden,Community Garden,PSA 1,"Cleveland, Maggie",maggie.cleveland@sfgov.org,(415) 254-8014,0.06,3,171743,"Hooker Aly, San Francisco, CA, (37.79043353, -122.41017264)",37.79043353,-122.41017264,size_tiny,Chinatown
94109,ALICE MARBLE TENNIS COURTS,Neighborhood Park or Playground,PSA 1,"Figone, Joe",joseph.figone@sfgov.org,(415) 713-4997,0.84,2,151,"Greenwich San Francisco, CA (37.80142776, -122.42034327)",37.80142776,-122.42034327,size_average,Nob Hill/Russian Hill
94109,RUSSIAN HILL OPEN SPACE,Neighborhood Park or Playground,PSA 1,"Cleveland, Maggie",maggie.cleveland@sfgov.org,(415) 254-8014,0.96,2,153,"Hyde San Francisco, CA (37.80341611, -122.42075699)",37.80341611,-122.42075699,size_average,Nob Hill/Russian Hill
94109,WASHINGTON/HYDE MINI PARK,Mini Park,PSA 1,"Figone, Joe",joseph.figone@sfgov.org,(415) 713-4997,0.15,3,144,"Washington San Francisco, CA (37.79400955, -122.41740007)",37.79400955,-122.41740007,size_tiny,Nob Hill/Russian Hill
94109,SGT. JOHN MACAULAY PARK,Mini Park,PSA 2,"Hill, Eric",eric.hill@sfgov.org,(415) 254-8030,0.21,6,123,"Larkin San Francisco, CA (37.78540001, -122.41819743)",37.78540001,-122.41819743,size_huge,Nob Hill/Russian Hill
94109,JOSEPH CONRAD MINI PARK,Mini Park,PSA 1,"Cleveland, Maggie",maggie.cleveland@sfgov.org,(415) 254-8014,0.09,3,154,"601 Beach St San Francisco, CA (37.80667244, -122.41906274)",37.80667244,-122.41906274,size_tiny,Nob Hill/Russian Hill
94109,HYDE/VALLEJO MINI PARK,Mini Park,PSA 1,"Figone, Joe",joseph.figone@sfgov.org,(415) 713-4997,0.1,3,146,"Hyde San Francisco, CA (37.79763564, -122.41910564)",37.79763564,-122.41910564,size_tiny,Nob Hill/Russian Hill
94109,TENDERLOIN CHILDREN'S REC CENTER,Neighborhood Park or Playground,PSA 2,"Hill, Eric",eric.hill@sfgov.org,(415) 254-8030,0.61,6,168,"570 Ellis St San Francisco, CA (37.78482103, -122.41540228)",37.78482103,-122.41540228,size_small,Nob Hill/Russian Hill
94109,HELEN WILLS PLAYGROUND,Neighborhood Park or Playground,PSA 1,"Figone, Joe",joseph.figone@sfgov.org,(415) 713-4997,0.8,3,130,"BRdway San Francisco, CA (37.79577299, -122.42066143)",37.79577299,-122.42066143,size_huge,Nob Hill/Russian Hill
94109,BROADWAY TUNNEL WEST MINI PARK,Mini Park,PSA 1,"Figone, Joe",joseph.figone@sfgov.org,(415) 713-4997,0.12,3,203,"1201 Broadway San Francisco, CA (37.79643576, -122.41742319)",37.79643576,-122.41742319,size_tiny,Nob Hill/Russian Hill
94109,SOUTH END ROWING/DOLPHIN CLUB,Concession,PSA 1,"Figone, Joe",joseph.figone@sfgov.org,(415) 713-4997,1.11,3,190,"500 Jefferson St San Francisco, CA (37.80796044, -122.42126376)",37.80796044,-122.42126376,size_average,Nob Hill/Russian Hill
94109,LAFAYETTE PARK,Neighborhood Park or Playground,PSA 1,"Figone, Joe",joseph.figone@sfgov.org,(415) 713-4997,11.49,2,128,"Gough San Francisco, CA (37.79154983, -122.42767158)",37.79154983,-122.42767158,size_huge,Nob Hill/Russian Hill
94110,COSO/PRECITA MINI PARK,Mini Park,PSA 6,"Miller, John",john.miller@sfgov.org,(415) 513-2577,0.15,9,199,"Coso San Francisco, CA (37.74624354, -122.41812033)",37.74624354,-122.41812033,size_tiny,Mission District
94110,BERNAL HEIGHTS RECREATION CENTER,Neighborhood Park or Playground,PSA 6,"Miller, John",john.miller@sfgov.org,(415) 513-2577,0.74,9,33,"500 Moultrie San Francisco, CA (37.73844636, -122.41615685)",37.73844636,-122.41615685,size_small,Mission District
94110,Dog Patch-Miller Memorial Comm. Garden,Community Garden,PSA 6,"Miller, John",john.miller@sfgov.org,(415) 513-2577,0.26,9,35,"Brewster/Rutledge St, San Francisco, CA, (37.74503985, -122.40715464)",37.74503985,-122.40715464,size_small,Mission District
94110,UTAH/18TH MINI PARK,Mini Park,PSA 2,"Hill, Eric",eric.hill@sfgov.org,(415) 254-8030,0.1,10,202,"18th San Francisco, CA (37.76251745, -122.40599759)",37.76251745,-122.40599759,size_tiny,Mission District
94110,24TH/YORK MINI PARK,Mini Park,PSA 6,"Field, Adrian",adrian.field@sfgov.org,(415) 717-2872,0.12,9,51,"24th San Francisco, CA (37.75306042, -122.40857543)",37.75306042,-122.40857543,size_tiny,Mission District
94110,Park St Community Garden,Community Garden,PSA 6,"Miller, John",john.miller@sfgov.org,(415) 513-2577,0.05,9,171731,"Park San Francisco, CA (37.73647064, -122.42577666)",37.73647064,-122.42577666,size_tiny,Mission District
94110,HOLLY PARK,Neighborhood Park or Playground,PSA 6,"Miller, John",john.miller@sfgov.org,(415) 513-2577,8.15,9,32,"Holly Park Cir, San Francisco, CA, (37.73720955, -122.41994010",37.73720955,-122.41994010,size_huge,Mission District
94110,MULLEN/PERALTA MINI PARK,Mini Park,PSA 6,"Miller, John",john.miller@sfgov.org,(415) 513-2577,0.45,9,176,"Mullen San Francisco, CA (37.74607638, -122.40880708)",37.74607638,-122.40880708,size_small,Mission District
94110,JOSE CORONADO PLAYGROUND,Neighborhood Park or Playground,PSA 6,"Field, Adrian",adrian.field@sfgov.org,(415) 717-2872,0.78,9,60,"21st San Francisco, CA (37.75754628, -122.41510589)",37.75754628,-122.41510589,size_small,Mission District
94110,BERNAL HEIGHTS PARK,Neighborhood Park or Playground,PSA 6,"Miller, John",john.miller@sfgov.org,(415) 513-2577,26.34,9,36,"Bernal Heights Blvd, San Francisco, CA, (37.74313167, -122.41425204)",37.74313167,-122.41425204,size_huge,Mission District
94110,Ogden Terrace Community Garden,Community Garden,PSA 6,"Miller, John",john.miller@sfgov.org,(415) 513-2577,0.15,9,171609,"700 Ogden Ave San Francisco, CA (37.73580357, -122.41203411)",37.73580357,-122.41203411,size_tiny,Mission District
94110,FRANKLIN SQUARE,Neighborhood Park or Playground,PSA 2,"Hill, Eric",eric.hill@sfgov.org,(415) 254-8030,5.18,6,55,"16th San Francisco, CA (37.76501506, -122.4093148)",37.76501506,-122.4093148,size_large,Mission District
94110,POTRERO DEL SOL PARK,Neighborhood Park or Playground,PSA 6,"Field, Adrian",adrian.field@sfgov.org,(415) 717-2872,4.36,10,49,"Potrero San Francisco, CA (37.75060695, -122.40507971)",37.75060695,-122.40507971,size_large,Mission District
94110,MISSION PLAYGROUND,Neighborhood Park or Playground,PSA 6,"Field, Adrian",adrian.field@sfgov.org,(415) 717-2872,2.03,8,61,"19th San Francisco, CA (37.7592917, -122.42230064)",37.7592917,-122.42230064,size_average,Mission District
94110,MISSION REC CENTER,Neighborhood Park or Playground,PSA 6,"Field, Adrian",adrian.field@sfgov.org,(415) 717-2872,0.63,9,59,"2450 Harrison St San Francisco, CA (37.75813659, -122.41292225)",37.75813659,-122.41292225,size_small,Mission District
94110,JURI COMMONS,Mini Park,PSA 6,"Field, Adrian",adrian.field@sfgov.org,(415) 717-2872,0.32,9,23,"Guerrero San Francisco, CA (37.74950391, -122.42199245)",37.74950391,-122.42199245,size_small,Mission District
94110,PRENTISS MINI PARK,Mini Park,PSA 6,"Miller, John",john.miller@sfgov.org,(415) 513-2577,0.06,9,201,"Prentiss San Francisco, CA (37.74021712, -122.41187368)",37.74021712,-122.41187368,size_tiny,Mission District
94110,KID POWER PARK,Neighborhood Park or Playground,PSA 6,"Field, Adrian",adrian.field@sfgov.org,(415) 717-2872,0.23,6,191,"45 Hoff St San Francisco, CA (37.76415431, -122.42027989)",37.76415431,-122.42027989,size_small,Mission District
94110,GARFIELD SQUARE,Neighborhood Park or Playground,PSA 6,"Field, Adrian",adrian.field@sfgov.org,(415) 717-2872,2.93,9,24,"26th San Francisco, CA (37.75020058, -122.4122356)",37.75020058,-122.4122356,size_large,Mission District
94110,Good Prospect Community Garden,Community Garden,PSA 6,"Miller, John",john.miller@sfgov.org,(415) 513-2577,0.11,9,21141,"100 Cortland Ave San Francisco, CA (37.74002499, -122.42097734)",37.74002499,-122.42097734,size_tiny,Mission District
94110,PARQUE NINOS UNIDOS,Neighborhood Park or Playground,PSA 6,"Field, Adrian",adrian.field@sfgov.org,(415) 717-2872,0.53,9,187,"23rd San Francisco, CA (37.75439053, -122.41356906)",37.75439053,-122.41356906,size_small,Mission District
94110,ALIOTO MINI PARK,Mini Park,PSA 6,"Field, Adrian",adrian.field@sfgov.org,(415) 717-2872,0.16,9,62,"20th San Francisco, CA (37.75890196, -122.41821702)",37.75890196,-122.41821702,size_tiny,Mission District
94110,COLERIDGE MINI PARK,Mini Park,PSA 6,"Miller, John",john.miller@sfgov.org,(415) 513-2577,0.21,9,34,"Coleridge San Francisco, CA (37.74442266, -122.41966647)",37.74442266,-122.41966647,size_huge,Mission District
94110,Dearborn Community Garden,Community Garden,PSA 6,"Field, Adrian",adrian.field@sfgov.org,(415) 717-2872,0.15,8,137654,"59 Dearborn St San Francisco, CA (37.76237833, -122.42274353)",37.76237833,-122.42274353,size_tiny,Mission District
94110,ST MARY'S REC CENTER,Neighborhood Park or Playground,PSA 6,"Miller, John",john.miller@sfgov.org,(415) 513-2577,13.6,9,31,"Murray San Francisco, CA (37.73365828, -122.42064294)",37.73365828,-122.42064294,size_huge,Mission District
94110,Wolfe Lane Community Garden,Community Garden,PSA 6,"Miller, John",john.miller@sfgov.org,(415) 513-2577,0.05,9,171608,"90 Rutledge St San Francisco, CA (37.74528401, -122.4066037)",37.74528401,-122.4066037,size_tiny,Mission District
94110,PRECITA PARK,Neighborhood Park or Playground,PSA 6,"Miller, John",john.miller@sfgov.org,(415) 513-2577,2.21,9,37,"3200 Folsom St San Francisco, CA (37.74706232, -122.41202466)",37.74706232,-122.41202466,size_large,Mission District
94110,JAMES ROLPH JR PLAYGROUND,Neighborhood Park or Playground,PSA 6,"Field, Adrian",adrian.field@sfgov.org,(415) 717-2872,2.93,9,50,"Potrero San Francisco, CA (37.7497274, -122.40623124)",37.7497274,-122.40623124,size_large,Mission District
94111,JUSTIN HERMAN/EMBARCADERO PLAZA,Civic Plaza or Square,PSA 1,"Cleveland, Maggie",maggie.cleveland@sfgov.org,(415) 254-8014,4.33,3,138,"Clay San Francisco, CA (37.79487978, -122.39476577)",37.79487978,-122.39476577,size_large,Embarcadero North
94111,MARITIME PLAZA,Civic Plaza or Square,PSA 1,"Cleveland, Maggie",maggie.cleveland@sfgov.org,(415) 254-8014,2.01,3,142,"285 Washington St San Francisco, CA (37.79560513, -122.39923889)",37.79560513,-122.39923889,size_average,Embarcadero North
94111,SUE BIERMAN PARK,Neighborhood Park or Playground,PSA 1,"Cleveland, Maggie",maggie.cleveland@sfgov.org,(415) 601-7277,4.41,3,143,"Clay St San Francisco, CA (37.79592597, -122.3965106)",37.79592597,-122.3965106,size_large,Embarcadero North
94112,JOHN MCLAREN PARK,Regional Park,PSA 3,"Taylor, Zack",zack.taylor@sfgov.org,(415) 601-7277,312.54,10,28,"Mansell San Francisco, CA (37.7180842, -122.41907209)",37.7180842,-122.41907209,size_huge,Ingleside
94112,ALICE CHALMERS PLAYGROUND,Neighborhood Park or Playground,PSA 3,"Taylor, Zack",zack.taylor@sfgov.org,(415) 601-7277,1.68,11,25,"670 Brunswick San Francisco, CA (37.7098271, -122.44665065)",37.7098271,-122.44665065,size_average,Ingleside
94112,LESSING/SEARS MINI PARK,Mini Park,PSA 3,"Watkins, Robert",robert.watkins@sfgov.org,(415) 819-6138,0.15,11,14,"Sickles San Francisco, CA (37.70860406, -122.4553029)",37.70860406,-122.4553029,size_tiny,Ingleside
94112,BALBOA PARK,Neighborhood Park or Playground,PSA 5,"Lockwood, Darlene",darlene.lockwood@sfgov.org,(415) 717-2872,24.02,11,66,"Ocean San Francisco, CA (37.72494861, -122.44462659)",37.72494861,-122.44462659,size_huge,Ingleside
94112,EXCELSIOR PLAYGROUND,Neighborhood Park or Playground,PSA 3,"Taylor, Zack",zack.taylor@sfgov.org,(415) 601-7277,1.61,11,29,"Russia Ave San Francisco, CA (37.7203554, -122.43321862)",37.7203554,-122.43321862,size_average,Ingleside
94112,CAYUGA/LAMARTINE MINI PARK,Mini Park,PSA 5,"Lockwood, Darlene",darlene.lockwood@sfgov.org,(415) 717-2872,0.12,11,159,"Cayuga San Francisco, CA (37.73033758, -122.43294264)",37.73033758,-122.43294264,size_tiny,Ingleside
94112,GENEVA AVENUE STRIP,Mini Park,PSA 5,"Lockwood, Darlene",darlene.lockwood@sfgov.org,(415) 717-2872,0.23,11,21,"600 Geneva San Francisco, CA (37.72046082, -122.44546412)",37.72046082,-122.44546412,size_small,Ingleside
94112,CAYUGA PLAYGROUND,Neighborhood Park or Playground,PSA 3,"Taylor, Zack",zack.taylor@sfgov.org,(415) 601-7277,2.69,11,15,"301 Naglee Ave San Francisco, CA (37.71388814, -122.45029719)",37.71388814,-122.45029719,size_large,Ingleside
94112,MINNIE & LOVIE WARD REC CENTER,Neighborhood Park or Playground,PSA 4,"Sheehy, Chuck",charles.sheehy@sfgov.org,(415) 218-2226,10.3,11,19,"650 Capitol San Francisco, CA (37.71577016, -122.45757024)",37.71577016,-122.45757024,size_huge,Ingleside
94112,CROCKER AMAZON PLAYGROUND,Neighborhood Park or Playground,PSA 3,"Taylor, Zack",zack.taylor@sfgov.org,(415) 601-7277,56.46,11,164,"Moscow San Francisco, CA (37.7140459, -122.42923866)",37.7140459,-122.42923866,size_huge,Ingleside
94114,SEWARD MINI PARK,Mini Park,PSA 5,"O'Brien, Teresa",teresa.o'brien@sfgov.org,(415) 819-2699,0.37,8,73,"Seward San Francisco, CA (37.75761058, -122.44006058)",37.75761058,-122.44006058,size_small,Castro
94114,NOE/BEAVER COMMUNITY GARDEN,Community Garden,PSA 6,"Field, Adrian",adrian.field@sfgov.org,(415) 717-2872,0.11,8,64,"Noe San Francisco, CA (37.76491711, -122.4334455)",37.76491711,-122.4334455,size_tiny,Castro
94114,CORONA HEIGHTS,Neighborhood Park or Playground,PSA 5,"O'Brien, Teresa",teresa.o'brien@sfgov.org,(415) 819-2699,13.38,8,80,"Roosevelt San Francisco, CA (37.76497671, -122.43879691)",37.76497671,-122.43879691,size_huge,Castro
94114,KITE HILL,Neighborhood Park or Playground,PSA 5,"O'Brien, Teresa",teresa.o'brien@sfgov.org,(415) 819-2699,2.87,8,74,"Yukon San Francisco, CA (37.75824114, -122.44166171)",37.75824114,-122.44166171,size_large,Castro
94114,MISSION DOLORES PARK,Neighborhood Park or Playground,PSA 6,"Field, Adrian",adrian.field@sfgov.org,(415) 717-2872,15.94,8,63,"19th San Francisco, CA (37.75975506, -122.42709405)",37.75975506,-122.42709405,size_huge,Castro
94114,PEIXOTTO PLAYGROUND,Neighborhood Park or Playground,PSA 5,"O'Brien, Teresa",teresa.o'brien@sfgov.org,(415) 819-2699,0.79,8,195,"15th St San Francisco, CA (37.76578838, -122.43790519)",37.76578838,-122.43790519,size_small,Castro
94114,SATURN STREET STEPS,Mini Park,PSA 5,"O'Brien, Teresa",teresa.o'brien@sfgov.org,(415) 819-2699,0.1,8,79,"Saturn San Francisco, CA (37.7626853, -122.44055619)",37.7626853,-122.44055619,size_tiny,Castro
94114,ROOSEVELT/HENRY STEPS,Mini Park,PSA 5,"O'Brien, Teresa",teresa.o'brien@sfgov.org,(415) 819-2699,0.34,8,107857,"299 Henry St San Francisco, CA (37.76655956, -122.43732268)",37.76655956,-122.43732268,size_small,Castro
94114,NOE VALLEY COURTS,Neighborhood Park or Playground,PSA 5,"O'Brien, Teresa",teresa.o'brien@sfgov.org,(415) 819-2699,0.93,8,72,"24th San Francisco, CA (37.75140324, -122.43892096)",37.75140324,-122.43892096,size_average,Castro
94114,STATES STREET PLAYGROUND,Neighborhood Park or Playground,PSA 5,"O'Brien, Teresa",teresa.o'brien@sfgov.org,(415) 819-2699,2.76,8,200,"86 States St San Francisco, CA (37.76380044, -122.43785312)",37.76380044,-122.43785312,size_large,Castro
94114,Corwin Community Garden,Community Garden,PSA 5,"O'Brien, Teresa",teresa.o'brien@sfgov.org,(415) 819-2699,0.09,8,164221,"410 Douglass St San Francisco, CA (37.75723015, -122.43902313)",37.75723015,-122.43902313,size_tiny,Castro
94114,Clipper Terrace Community Garden,Community Garden,PSA 5,"Lockwood, Darlene",darlene.lockwood@sfgov.org,(415) 717-2872,0.35,8,135193,"855 Clipper Terrace San Francisco, CA (37.74785021, -122.44317435)",37.74785021,-122.44317435,size_small,Castro
94114,EUREKA VALLEY REC CENTER,Neighborhood Park or Playground,PSA 5,"O'Brien, Teresa",teresa.o'brien@sfgov.org,(415) 819-2699,1.93,8,75,"100 Collingwood St San Francisco, CA (37.75978957, -122.43648069)",37.75978957,-122.43648069,size_average,Castro
94115,JAPANTOWN PEACE PLAZA,Civic Plaza or Square,PSA 2,"O'Connor, Tom",tom.o'connor@sfgov.org,(415) 218-0259,0.71,5,126,"Post San Francisco, CA (37.78520911, -122.42975098)",37.78520911,-122.42975098,size_small,Pacific Heights/Western Addition
94115,BEIDEMAN/O'FARRELL MINI PARK,Mini Park,PSA 2,"O'Connor, Tom",tom.o'connor@sfgov.org,(415) 218-0259,0.06,5,106,"O'Farrell San Francisco, CA (37.78238894, -122.43861654)",37.78238894,-122.43861654,size_tiny,Pacific Heights/Western Addition
94115,FILLMORE/TURK MINI PARK,Mini Park,PSA 2,"O'Connor, Tom",tom.o'connor@sfgov.org,(415) 218-0259,0.23,5,182,"Fillmore San Francisco, CA (37.78018588, -122.43178038)",37.78018588,-122.43178038,size_small,Pacific Heights/Western Addition
94115,RAYMOND KIMBELL PLAYGROUND,Neighborhood Park or Playground,PSA 2,"O'Connor, Tom",tom.o'connor@sfgov.org,(415) 218-0259,0,5,124,"Geary Blvd San Francisco, CA (37.78294403, -122.43512653)",37.78294403,-122.43512653,size_tiny,Pacific Heights/Western Addition
94115,GOLDEN GATE/STEINER MINI PARK,Mini Park,PSA 2,"O'Connor, Tom",tom.o'connor@sfgov.org,(415) 218-0259,0.08,5,120,"Golden Gate San Francisco, CA (37.77958265, -122.43345152)",37.77958265,-122.43345152,size_tiny,Pacific Heights/Western Addition
94115,BUSH/BRODERICK MINI PARK,Mini Park,PSA 2,"O'Connor, Tom",tom.o'connor@sfgov.org,(415) 218-0259,0.18,5,108,"Baker San Francisco, CA (37.78557814, -122.44253511)",37.78557814,-122.44253511,size_tiny,Pacific Heights/Western Addition
94115,HAMILTON REC CENTER,Neighborhood Park or Playground,PSA 2,"O'Connor, Tom",tom.o'connor@sfgov.org,(415) 218-0259,3.22,5,125,"1900 Geary Blvd San Francisco, CA (37.78441485, -122.43603929)",37.78441485,-122.43603929,size_large,Pacific Heights/Western Addition
94115,ALTA PLAZA,Neighborhood Park or Playground,PSA 1,"Figone, Joe",joseph.figone@sfgov.org,(415) 713-4997,11.91,2,129,"Jackson San Francisco, CA (37.79117333, -122.43766978)",37.79117333,-122.43766978,size_huge,Pacific Heights/Western Addition
94115,COTTAGE ROW MINI PARK,Mini Park,PSA 2,"O'Connor, Tom",tom.o'connor@sfgov.org,(415) 218-0259,0.16,5,127,"Sutter San Francisco, CA (37.78657099, -122.4323102)",37.78657099,-122.4323102,size_tiny,Pacific Heights/Western Addition
94116,HAWK HILL,Neighborhood Park or Playground,PSA 4,"Sheehy, Chuck",charles.sheehy@sfgov.org,(415) 218-2226,4.85,7,186,"14th Ave Rivera San Francisco, CA (37.74657651, -122.46872941)",37.74657651,-122.46872941,size_large,Outer Sunset
94116,J. P. MURPHY PLAYGROUND,Neighborhood Park or Playground,PSA 4,"Sheehy, Chuck",charles.sheehy@sfgov.org,(415) 218-2226,1.23,7,90,"1960 9th Ave San Francisco, CA (37.75180107, -122.46500011)",37.75180107,-122.46500011,size_average,Outer Sunset
94116,CARL LARSEN PARK,Neighborhood Park or Playground,PSA 4,"Sheets, Robert",robert.sheets@sfgov.org,(415) 235-4576,6.58,4,86,"19th Ave San Francisco, CA (37.73929782, -122.47596603)",37.73929782,-122.47596603,size_huge,Outer Sunset
94116,SOUTH SUNSET PLAYGROUND,Neighborhood Park or Playground,PSA 4,"Sheets, Robert",robert.sheets@sfgov.org,(415) 235-4576,3.72,4,85,"40th Ave San Francisco, CA (37.73738679, -122.49845174)",37.73738679,-122.49845174,size_large,Outer Sunset
94116,MCCOPPIN SQUARE,Neighborhood Park or Playground,PSA 4,"Sheets, Robert",robert.sheets@sfgov.org,(415) 235-4576,7.24,4,88,"24th San Francisco, CA (37.74382723, -122.48007959)",37.74382723,-122.48007959,size_huge,Outer Sunset
94116,ROCK OUTCROPPING,Neighborhood Park or Playground,PSA 4,"Sheets, Robert",robert.sheets@sfgov.org,(415) 235-4576,1.4,7,175,"Ortega San Francisco, CA (37.75384487, -122.47086479)",37.75384487,-122.47086479,size_average,Outer Sunset
94116,GOLDEN GATE HEIGHTS PARK,Neighborhood Park or Playground,PSA 4,"Sheehy, Chuck",charles.sheehy@sfgov.org,(415) 218-2226,6.95,7,89,"12th Ave (off Pacheco San Francisco, CA (37.74998538, -122.46940674)",37.74998538,-122.46940674,size_huge,Outer Sunset
94116,WEST SUNSET PLAYGROUND,Neighborhood Park or Playground,PSA 4,"Sheets, Robert",robert.sheets@sfgov.org,(415) 235-4576,17.16,4,91,"3223 Ortega St & 39th Ave San Francisco, CA (37.74899627, -122.49800859)",37.74899627,-122.49800859,size_huge,Outer Sunset
94117,TANK HILL,Neighborhood Park or Playground,PSA 5,"O'Brien, Teresa",teresa.o'brien@sfgov.org,(415) 819-2699,2.87,5,76,"Clarendon San Francisco, CA (37.75994801, -122.44768643)",37.75994801,-122.44768643,size_large,Height/Cole Valley
94117,GOLDEN GATE PARK,Regional Park,Golden Gate Park,"Koch-Gonzalez, Gloria",gloria.koch-gonzalez@sfgov.org,(415) 831-6307,1031.98,1,94,"Stanyan San Francisco, CA (37.76905891, -122.48094821)",37.76905891,-122.48094821,size_huge,Height/Cole Valley
94117,MT OLYMPUS,Neighborhood Park or Playground,PSA 5,"O'Brien, Teresa",teresa.o'brien@sfgov.org,(415) 819-2699,0.21,8,78,"Upper Terrace, San Francisco, CA, (37.76330762, -122.44554051)",37.76330762,-122.44554051,size_huge,Height/Cole Valley
94117,DUBOCE PARK,Neighborhood Park or Playground,PSA 6,"Field, Adrian",adrian.field@sfgov.org,(415) 717-2872,4.31,8,113,"Duboce San Francisco, CA (37.769615, -122.43342784)",37.769615,-122.43342784,size_large,Height/Cole Valley
94117,ALAMO SQUARE,Neighborhood Park or Playground,PSA 2,"O'Connor, Tom",tom.o'connor@sfgov.org,(415) 218-0259,12.7,5,117,"Hayes San Francisco, CA (37.77634875, -122.43467396)",37.77634875,-122.43467396,size_huge,Height/Cole Valley
94117,GRATTAN PLAYGROUND,Neighborhood Park or Playground,PSA 2,"O'Connor, Tom",tom.o'connor@sfgov.org,(415) 218-0259,1.52,5,104,"1180 Stanyan St San Francisco, CA (37.76259314, -122.45147654)",37.76259314,-122.45147654,size_average,Height/Cole Valley
94117,BUENA VISTA PARK,Regional Park,PSA 5,"O'Brien, Teresa",teresa.o'brien@sfgov.org,(415) 819-2699,36.08,8,81,"Buena Vista San Francisco, CA (37.7685639, -122.44137945)",37.7685639,-122.44137945,size_huge,Height/Cole Valley
94118,10TH AVE/CLEMENT MINI PARK,Mini Park,PSA 1,"Elder, Steve",steven.elder@sfgov.org,(415) 601-6501,0.66,1,156,"351 9th Ave San Francisco, CA (37.78184397, -122.46809908)",37.78184397,-122.46809908,size_small,Richmond District
94118,LAUREL HILL PLAYGROUND,Neighborhood Park or Playground,PSA 1,"Figone, Joe",joseph.figone@sfgov.org,(415) 713-4997,1.47,2,107,"251 Euclid Ave San Francisco, CA (37.78393678, -122.45093931)",37.78393678,-122.45093931,size_average,Richmond District
94118,PARK PRESIDIO BLVD,Parkway,PSA 1,"Elder, Steve",steven.elder@sfgov.org,(415) 601-6501,20.38,1,101,"Park Presidio Blvd, San Francisco, CA, (37.78012283, -122.47228457)",37.78012283,-122.47228457,size_huge,Richmond District
94118,PRESIDIO HEIGHTS PLAYGROUND,Neighborhood Park or Playground,PSA 1,"Figone, Joe",joseph.figone@sfgov.org,(415) 713-4997,0.44,2,109,"Clay San Francisco, CA (37.78847078, -122.4495972)",37.78847078,-122.4495972,size_small,Richmond District
94118,MURIEL LEFF MINI PARK,Mini Park,PSA 1,"Elder, Steve",steven.elder@sfgov.org,(415) 601-6501,0.21,1,155,"7th Ave between Geary San Francisco, CA (37.78006464, -122.46500795)",37.78006464,-122.46500795,size_huge,Richmond District
94118,JULIUS KAHN PLAYGROUND,Neighborhood Park or Playground,PSA 1,"Figone, Joe",joseph.figone@sfgov.org,(415) 713-4997,12.38,2,166,"Pacific Ave San Francisco, CA (37.79131306, -122.45397275)",37.79131306,-122.45397275,size_huge,Richmond District
94118,ANGELO J. ROSSI PLAYGROUND,Neighborhood Park or Playground,PSA 1,"Elder, Steve",steven.elder@sfgov.org,(415) 601-6501,6.47,1,105,"2 Willard North St San Francisco, CA (37.77874186, -122.45745402)",37.77874186,-122.45745402,size_huge,Richmond District
94118,MOUNTAIN LAKE PARK,Neighborhood Park or Playground,PSA 1,"Elder, Steve",steven.elder@sfgov.org,(415) 601-6501,12.79,2,102,"1 11th Ave San Francisco, CA (37.78724257, -122.4690454)",37.78724257,-122.4690454,size_huge,Richmond District
94121,ROCHAMBEAU PLAYGROUND,Neighborhood Park or Playground,PSA 1,"Elder, Steve",steven.elder@sfgov.org,(415) 601-6501,0.83,1,99,"238 25th Ave San Francisco, CA (37.78483852, -122.48454408)",37.78483852,-122.48454408,size_average,Outer Richmond
94121,BALBOA NATURAL AREA,Neighborhood Park or Playground,PSA 1,"Wayne, Lisa",lisa.wayne@sfgov.org,(415) 666-7092,1.84,1,174,"Balboa San Francisco, CA (37.77591285, -122.51103949)",37.77591285,-122.51103949,size_average,Outer Richmond
94121,ARGONNE PLAYGROUND,Neighborhood Park or Playground,PSA 1,"Elder, Steve",steven.elder@sfgov.org,(415) 601-6501,0.82,1,97,"18th Ave San Francisco, CA (37.779415, -122.47769976)",37.779415,-122.47769976,size_average,Outer Richmond
94121,RICHMOND PLAYGROUND,Neighborhood Park or Playground,PSA 1,"Elder, Steve",steven.elder@sfgov.org,(415) 601-6501,0.82,1,100,"18th Ave San Francisco, CA (37.78513017, -122.47811169)",37.78513017,-122.47811169,size_average,Outer Richmond
94121,FULTON PLAYGROUND,Neighborhood Park or Playground,PSA 1,"Elder, Steve",steven.elder@sfgov.org,(415) 601-6501,0.82,1,96,"855 27th Ave San Francisco, CA (37.7733822, -122.48693405)",37.7733822,-122.48693405,size_average,Outer Richmond
94121,RICHMOND RECREATION CENTER,Neighborhood Park or Playground,PSA 1,"Elder, Steve",steven.elder@sfgov.org,(415) 601-6501,0.82,1,172,"251 18th Ave San Francisco, CA (37.78326998, -122.47797676)",37.78326998,-122.47797676,size_average,Outer Richmond
94121,CABRILLO PLAYGROUND,Neighborhood Park or Playground,PSA 1,"Elder, Steve",steven.elder@sfgov.org,(415) 601-6501,0.89,1,95,"858 38th Ave San Francisco, CA (37.77286672, -122.49870214)",37.77286672,-122.49870214,size_average,Outer Richmond
94121,LINCOLN PARK,Regional Park,PSA 1,"Elder, Steve",steven.elder@sfgov.org,(415) 601-6501,112.03,1,103,"34th Ave San Francisco, CA (37.78423843, -122.49838278)",37.78423843,-122.49838278,size_huge,Outer Richmond
94121,DUPONT COURTS,Neighborhood Park or Playground,PSA 1,"Elder, Steve",steven.elder@sfgov.org,(415) 601-6501,0.82,1,98,"336 31st Ave San Francisco, CA (37.78268787, -122.4908331)",37.78268787,-122.4908331,size_average,Outer Richmond
94122,LOWER GREAT HIGHWAY,Parkway,Golden Gate Park,"Deasy, Jon",jon.deasy@sfgov.org,(415) 831-6307,21.1,4,163,"Great Highway San Francisco, CA (37.74928062, -122.50817528)",37.74928062,-122.50817528,size_huge,Sunset District
94122,15TH AVENUE STEPS,Mini Park,PSA 4,"Sheehy, Chuck",charles.sheehy@sfgov.org,(415) 218-2226,0.26,7,185,"15th Ave b w Kirkham San Francisco, CA (37.75956493, -122.47226783)",37.75956493,-122.47226783,size_small,Sunset District
94122,SUNSET PLAYGROUND,Neighborhood Park or Playground,PSA 4,"Sheets, Robert",robert.sheets@sfgov.org,(415) 235-4576,3.29,4,93,"2201 Lawton St San Francisco, CA (37.75658875, -122.48684698)",37.75658875,-122.48684698,size_large,Sunset District
94122,GRAND VIEW PARK,Neighborhood Park or Playground,PSA 4,"Sheehy, Chuck",charles.sheehy@sfgov.org,(415) 218-2226,3.98,7,92,"Moraga San Francisco, CA (37.75646571, -122.47180128)",37.75646571,-122.47180128,size_large,Sunset District
94122,GRAND VIEW OPEN SPACE,Neighborhood Park or Playground,PSA 4,"Sheehy, Chuck",charles.sheehy@sfgov.org,(415) 218-2226,0.65,7,12910,"15th Ave San Francisco, CA (37.75507227, -122.47235155)",37.75507227,-122.47235155,size_small,Sunset District
94123,YACHT HARBOR AND MARINA GREEN,Regional Park,PSA 1,"Figone, Joe",joseph.figone@sfgov.org,(415) 713-4997,162.16,2,112,"Marina Blvd, San Francisco, CA, (37.80677550, -122.44076019)",37.80677550,-122.44076019,size_huge,Cow Hollow/Marina District
94123,PALACE OF FINE ARTS,Civic Plaza or Square,PSA 1,"Figone, Joe",joseph.figone@sfgov.org,(415) 713-4997,19.37,2,111,"3601 Lyon St & Marina Blvd San Francisco, CA (37.80299898, -122.44851272)",37.80299898,-122.44851272,size_huge,Cow Hollow/Marina District
94123,ALLYNE PARK,Neighborhood Park or Playground,PSA 1,"Figone, Joe",joseph.figone@sfgov.org,(415) 713-4997,0.75,2,131,"2609 Gough St San Francisco, CA (37.79746066, -122.42759992)",37.79746066,-122.42759992,size_small,Cow Hollow/Marina District
94123,MOSCONE RECREATION CENTER,Neighborhood Park or Playground,PSA 1,"Figone, Joe",joseph.figone@sfgov.org,(415) 713-4997,12.07,2,132,"1800 Chestnut St San Francisco, CA (37.8021249, -122.43313532)",37.8021249,-122.43313532,size_huge,Cow Hollow/Marina District
94123,COW HOLLOW PLAYGROUND,Neighborhood Park or Playground,PSA 1,"Figone, Joe",joseph.figone@sfgov.org,(415) 713-4997,0.15,2,110,"1 Miley St San Francisco, CA (37.79733829, -122.44485143)",37.79733829,-122.44485143,size_tiny,Cow Hollow/Marina District
94124,HILLTOP PARK,Neighborhood Park or Playground,PSA 3,"Watkins, Robert",robert.watkins@sfgov.org,(415) 819-6138,3.46,10,47,"La Salle San Francisco, CA (37.73291728, -122.38347479)",37.73291728,-122.38347479,size_large,Bayview
94124,GILMAN PLAYGROUND,Neighborhood Park or Playground,PSA 3,"Watkins, Robert",robert.watkins@sfgov.org,(415) 819-6138,4.4,10,44,"Gilman Ave San Francisco, CA (37.71698202, -122.38809021)",37.71698202,-122.38809021,size_large,Bayview
94124,BAY VIEW PARK,Regional Park,PSA 3,"Watkins, Robert",robert.watkins@sfgov.org,(415) 819-6138,46.63,10,43,"LeConte Ave, San Francisco, CA, (37.71513230, -122.39227019)",37.71513230,-122.39227019,size_huge,Bayview
94124,SILVER TERRACE PLAYGROUND,Neighborhood Park or Playground,PSA 3,"Watkins, Robert",robert.watkins@sfgov.org,(415) 819-6138,5.47,10,39,"Thornton San Francisco, CA (37.73285911, -122.40314958)",37.73285911,-122.40314958,size_large,Bayview
94124,PALOU/PHELPS PARK,Neighborhood Park or Playground,PSA 3,"Watkins, Robert",robert.watkins@sfgov.org,(415) 819-6138,2.63,10,188,"Palou San Francisco, CA (37.73551382, -122.39472336)",37.73551382,-122.39472336,size_large,Bayview
94124,YOUNGBLOOD COLEMAN PLAYGROUND,Neighborhood Park or Playground,PSA 3,"Watkins, Robert",robert.watkins@sfgov.org,(415) 819-6138,6.13,10,45,"1398 Hudson St San Francisco, CA (37.73876792, -122.38450221)",37.73876792,-122.38450221,size_large,Bayview
94124,BAY VIEW PLAYGROUND,Neighborhood Park or Playground,PSA 3,"Watkins, Robert",robert.watkins@sfgov.org,(415) 819-6138,3.4,10,38,"3rd San Francisco, CA (37.72593906, -122.39329436)",37.72593906,-122.39329436,size_large,Bayview
94124,ADAM ROGERS PARK,Neighborhood Park or Playground,PSA 3,"Watkins, Robert",robert.watkins@sfgov.org,(415) 819-6138,2.74,10,46,"Ingalls San Francisco, CA (37.73101645, -122.38385466)",37.73101645,-122.38385466,size_large,Bayview
94124,JOSEPH LEE RECREATION CENTER,Neighborhood Park or Playground,PSA 3,"Watkins, Robert",robert.watkins@sfgov.org,(415) 819-6138,0.78,10,40,"1395 Mendell St San Francisco, CA (37.73453491, -122.389412)",37.73453491,-122.389412,size_small,Bayview
94124,RIDGETOP PLAZA,Neighborhood Park or Playground,PSA 3,"Watkins, Robert",robert.watkins@sfgov.org,(415) 819-6138,0.29,10,189,"Whitney Young Cire, San Francisco, CA, (37.73379832, -122.38345175)",37.73379832,-122.38345175,size_small,Bayview
94124,Hunter's Point Recreation Center,Neighborhood Park or Playground,PSA 3,"Watkins, Robert",robert.watkins@sfgov.org,(415) 695-5004,0.3,10,165,"200 Middle Point Rd San Francisco, CA (37.73735, -122.37834)",37.73735,-122.37834,size_small,Bayview
94124,CANDLESTICK PARK,Concession,Candlestick Park Stadium,"Gay, Mike",michael.gay@sfgov.org,(415) 218-4786,86.13,10,41,"Jamestown Ave San Francisco, CA (37.71327692, -122.38483572)",37.71327692,-122.38483572,size_huge,Bayview
94124,LECONTE MINI PARK,Mini Park,PSA 3,"Watkins, Robert",robert.watkins@sfgov.org,(415) 819-6138,0.16,10,137649,"845 Meade St San Francisco, CA (37.71765613, -122.3958507)",37.71765613,-122.3958507,size_tiny,Bayview
94124,INDIA BASIN SHORELINE PARK,Neighborhood Park or Playground,PSA 3,"Watkins, Robert",robert.watkins@sfgov.org,(415) 819-6138,11.57,10,48,"Evans San Francisco, CA (37.73366342, -122.37371901)",37.73366342,-122.37371901,size_huge,Bayview
94124,SELBY/PALOU MINI PARK,Mini Park,PSA 3,"Watkins, Robert",robert.watkins@sfgov.org,(415) 819-6138,0.29,10,157,"Palou San Francisco, CA (37.73886468, -122.40035293)",37.73886468,-122.40035293,size_small,Bayview
94127,APTOS PLAYGROUND,Neighborhood Park or Playground,PSA 4,"Sheehy, Chuck",charles.sheehy@sfgov.org,(415) 218-2226,4.81,7,65,"Aptos San Francisco, CA (37.7285246, -122.46654085)",37.7285246,-122.46654085,size_large,St Francis Wood
94127,WEST PORTAL PLAYGROUND,Neighborhood Park or Playground,PSA 4,"Sheets, Robert",robert.sheets@sfgov.org,(415) 235-4576,1.91,7,68,"Ulloa San Francisco, CA (37.74160392, -122.46524393)",37.74160392,-122.46524393,size_average,St Francis Wood
94127,EDGEHILL MOUNTAIN,Neighborhood Park or Playground,PSA 4,"Sheehy, Chuck",charles.sheehy@sfgov.org,(415) 218-2226,2.33,7,71,"Edgehill San Francisco, CA (37.74203025, -122.45976472)",37.74203025,-122.45976472,size_large,St Francis Wood
94127,MIRALOMA PLAYGROUND,Neighborhood Park or Playground,PSA 5,"Lockwood, Darlene",darlene.lockwood@sfgov.org,(415) 717-2872,2.2,7,70,"Omar San Francisco, CA (37.73864614, -122.44931265)",37.73864614,-122.44931265,size_large,St Francis Wood
94127,SUNNYSIDE PLAYGROUND,Neighborhood Park or Playground,PSA 5,"Lockwood, Darlene",darlene.lockwood@sfgov.org,(415) 717-2872,2.37,7,67,"Teresita Ave San Francisco, CA (37.73366412, -122.4474787)",37.73366412,-122.4474787,size_large,St Francis Wood
94127,MT DAVIDSON PARK,Regional Park,PSA 4,"Sheehy, Chuck",charles.sheehy@sfgov.org,(415) 218-2226,40.71,7,69,"Myra Wy, San Francisco, CA, (37.73906280, -122.45465821)",37.73906280,-122.45465821,size_huge,St Francis Wood
94127,O'SHAUGHNESSY HOLLOW,Neighborhood Park or Playground,PSA 5,"Lockwood, Darlene",darlene.lockwood@sfgov.org,(415) 717-2872,3.75,7,183,"O'Shaughnessy Blvd, San Francisco, CA, (37.74016899, -122.44487598)",37.74016899,-122.44487598,size_large,St Francis Wood
94127,GLEN PARK,Regional Park,PSA 5,"Lockwood, Darlene",darlene.lockwood@sfgov.org,(415) 717-2872,77.94,8,1,"Elk St San Francisco, CA (37.7400257, -122.44273225)",37.7400257,-122.44273225,size_huge,St Francis Wood
94131,BILLY GOAT HILL,Neighborhood Park or Playground,PSA 5,"O'Brien, Teresa",teresa.o'brien@sfgov.org,(415) 819-2699,3.67,8,5,"30th San Francisco, CA (37.74140787, -122.43319872)",37.74140787,-122.43319872,size_large,Twin Peaks
94131,WALTER HAAS PLAYGROUND,Neighborhood Park or Playground,PSA 5,"Lockwood, Darlene",darlene.lockwood@sfgov.org,(415) 717-2872,4.4,8,4,"Addison San Francisco, CA (37.74058384, -122.43436978)",37.74058384,-122.43436978,size_large,Twin Peaks
94131,PORTOLA OPEN SPACE,Mini Park,PSA 5,"Lockwood, Darlene",darlene.lockwood@sfgov.org,(415) 717-2872,0.81,8,37264,"201 Portola San Francisco, CA (37.74707797, -122.44406156)",37.74707797,-122.44406156,size_average,Twin Peaks
94131,DUNCAN/CASTRO OPEN SPACE,Neighborhood Park or Playground,PSA 5,"O'Brien, Teresa",teresa.o'brien@sfgov.org,(415) 819-2699,0.55,8,178,"Duncan San Francisco, CA (37.74594931, -122.43339409)",37.74594931,-122.43339409,size_small,Twin Peaks
94131,White Crane Springs Community Garden,Community Garden,PSA 4,"Sheets, Robert",robert.sheets@sfgov.org,(415) 235-4576,2.68,7,123631,"of 7th San Francisco, CA (37.75758279, -122.4633024)",37.75758279,-122.4633024,size_large,Twin Peaks
94131,TOPAZ OPEN SPACE,Neighborhood Park or Playground,PSA 5,"Lockwood, Darlene",darlene.lockwood@sfgov.org,(415) 717-2872,0.83,8,197,"Diamond Heights, San Francisco, CA, (37.74170413, -122.43616246)",37.74170413,-122.43616246,size_average,Twin Peaks
94131,Garden for the Environment,Community Garden,PSA 4,"Sheehy, Chuck",charles.sheehy@sfgov.org,(415) 218-2226,0.51,7,20755,"7th Ave North of Lawton, San Francisco, CA, (37.75911093, -122.46357301",37.75911093,-122.46357301,size_small,Twin Peaks
94131,GEORGE CHRISTOPHER PLAYGROUND,Neighborhood Park or Playground,PSA 5,"Lockwood, Darlene",darlene.lockwood@sfgov.org,(415) 717-2872,6.8,8,7,"5210 Diamond Heights Blvd San Francisco, CA (37.74347014, -122.44055037)",37.74347014,-122.44055037,size_huge,Twin Peaks
94131,SUNNYSIDE CONSERVATORY,Mini Park,PSA 5,"Lockwood, Darlene",darlene.lockwood@sfgov.org,(415) 717-2872,0.26,8,180,"Monterey San Francisco, CA (37.73193576, -122.44076127)",37.73193576,-122.44076127,size_small,Twin Peaks
94131,DOROTHY ERSKINE PARK,Neighborhood Park or Playground,PSA 5,"Lockwood, Darlene",darlene.lockwood@sfgov.org,(415) 717-2872,1.5,8,179,"Martha San Francisco, CA (37.73391249, -122.43944536)",37.73391249,-122.43944536,size_average,Twin Peaks
94131,BERKELEY WAY OPEN SPACE,Neighborhood Park or Playground,PSA 5,"Lockwood, Darlene",darlene.lockwood@sfgov.org,(415) 717-2872,0.83,8,2,"298 Berkeley Wy San Francisco, CA (37.73956697, -122.43995903)",37.73956697,-122.43995903,size_average,Twin Peaks
94131,DIAMOND/FARNUM OPEN SPACE,Neighborhood Park or Playground,PSA 5,"Lockwood, Darlene",darlene.lockwood@sfgov.org,(415) 717-2872,0.07,8,181,"Diamond San Francisco, CA (37.73880241, -122.43431084)",37.73880241,-122.43431084,size_tiny,Twin Peaks
94131,CRAGS COURT GARDEN,Community Garden,PSA 5,"Lockwood, Darlene",darlene.lockwood@sfgov.org,(415) 717-2872,0.41,8,198,"Crags Ct, San Francisco, CA, (37.74141960, -122.44067225)",37.74141960,-122.44067225,size_small,Twin Peaks
94131,EVERSON/DIGBY LOTS,Neighborhood Park or Playground,PSA 5,"Lockwood, Darlene",darlene.lockwood@sfgov.org,(415) 717-2872,1.2,8,6,"61 Everson St San Francisco, CA (37.73807643, -122.43177574)",37.73807643,-122.43177574,size_average,Twin Peaks
94131,INTERIOR GREEN BELT,Neighborhood Park or Playground,PSA 4,"Sheehy, Chuck",charles.sheehy@sfgov.org,(415) 218-2226,21.35,7,87,"Belmont San Francisco, CA (37.7585442, -122.45319935)",37.7585442,-122.45319935,size_huge,Twin Peaks
94131,Arlington Community Garden,Community Garden,PSA 5,"Lockwood, Darlene",darlene.lockwood@sfgov.org,(415) 717-2872,0.13,8,171736,"Arlington San Francisco, CA (37.73704325, -122.42637624)",37.73704325,-122.42637624,size_tiny,Twin Peaks
94131,29TH/DIAMOND OPEN SPACE,Neighborhood Park or Playground,PSA 5,"O'Brien, Teresa",teresa.o'brien@sfgov.org,(415) 819-2699,0.82,8,194,"Diamond San Francisco, CA (37.74360211, -122.43523589)",37.74360211,-122.43523589,size_average,Twin Peaks
94131,UPPER NOE RECREATION CENTER,Neighborhood Park or Playground,PSA 5,"O'Brien, Teresa",teresa.o'brien@sfgov.org,(415) 819-2699,2.51,8,22,"Day San Francisco, CA (37.74243091, -122.42779751)",37.74243091,-122.42779751,size_large,Twin Peaks
94131,MIDTOWN TERRACE PLAYGROUND,Neighborhood Park or Playground,PSA 4,"Sheehy, Chuck",charles.sheehy@sfgov.org,(415) 218-2226,1.57,7,167,"Clarendon San Francisco, CA (37.75223367, -122.45453246)",37.75223367,-122.45453246,size_average,Twin Peaks
94131,JOOST/BADEN MINI PARK,Mini Park,PSA 5,"Lockwood, Darlene",darlene.lockwood@sfgov.org,(415) 717-2872,0.14,8,158,"Joost San Francisco, CA (37.73273279, -122.4408417)",37.73273279,-122.4408417,size_tiny,Twin Peaks
94131,TWIN PEAKS,Regional Park,PSA 5,"Lockwood, Darlene",darlene.lockwood@sfgov.org,(415) 717-2872,54.59,7,77,"Twin Peaks Blvd, San Francisco, CA, (37.75279086, -122.44748390)",37.75279086,-122.44748390,size_huge,Twin Peaks
94131,DOUGLASS PLAYGROUND,Neighborhood Park or Playground,PSA 5,"Lockwood, Darlene",darlene.lockwood@sfgov.org,(415) 717-2872,7.45,8,8,"26th San Francisco, CA (37.74727823, -122.43893283)",37.74727823,-122.43893283,size_huge,Twin Peaks
94131,FAIRMOUNT PLAZA,Neighborhood Park or Playground,PSA 6,"Miller, John",john.miller@sfgov.org,(415) 513-2577,0.74,8,3,"Miquel San Francisco, CA (37.73849226, -122.42913147)",37.73849226,-122.42913147,size_small,Twin Peaks
94132,PARKSIDE SQUARE,Neighborhood Park or Playground,PSA 4,"Sheets, Robert",robert.sheets@sfgov.org,(415) 235-4576,8.31,4,84,"28th Ave San Francisco, CA (37.73794781, -122.48390596)",37.73794781,-122.48390596,size_huge,Lake Merced
94132,SAN FRANCISCO ZOO,Zoological Garden,PSA 4,"Scott, Ronnie",ronnie.scott@sfgov.org,(415) 504-7923,131.52,7,12,"1 Zoo Rd San Francisco, CA (37.73158916, -122.50380857)",37.73158916,-122.50380857,size_huge,Lake Merced
94132,BROTHERHOOD/CHESTER MINI PARK,Mini Park,PSA 4,"Sheehy, Chuck",charles.sheehy@sfgov.org,(415) 218-2226,0.59,7,160,"501 Brotherhood Wy San Francisco, CA (37.71238249, -122.46990318)",37.71238249,-122.46990318,size_small,Lake Merced
94132,ROLPH NICOL PLAYGROUND,Neighborhood Park or Playground,PSA 4,"Sheets, Robert",robert.sheets@sfgov.org,(415) 235-4576,3.04,7,9,"Eucalyptus Dr San Francisco, CA (37.73060291, -122.48041933)",37.73060291,-122.48041933,size_large,Lake Merced
94132,SIGMUND STERN RECREATION GROVE,Regional Park,PSA 4,"Sheets, Robert",robert.sheets@sfgov.org,(415) 235-4576,33.78,4,83,"19th Ave San Francisco, CA (37.73608224, -122.47829786)",37.73608224,-122.47829786,size_huge,Lake Merced
94132,LAKEVIEW/ASHTON MINI PARK,Mini Park,PSA 4,"Sheehy, Chuck",charles.sheehy@sfgov.org,(415) 218-2226,0.51,11,20,"Ashton San Francisco, CA (37.71809145, -122.4625727)",37.71809145,-122.4625727,size_small,Lake Merced
94132,HEAD/BROTHERHOOD MINI PARK,Mini Park,PSA 4,"Sheehy, Chuck",charles.sheehy@sfgov.org,(415) 218-2226,0.55,11,196,"Head St San Francisco, CA (37.71262222, -122.46422924)",37.71262222,-122.46422924,size_small,Lake Merced
94132,BROOKS PARK,Neighborhood Park or Playground,PSA 4,"Sheehy, Chuck",charles.sheehy@sfgov.org,(415) 218-2226,3.77,11,18,"373 Ramsell St San Francisco, CA (37.71727397, -122.46676875)",37.71727397,-122.46676875,size_large,Lake Merced
94132,PINE LAKE PARK,Regional Park,PSA 4,"Sheets, Robert",robert.sheets@sfgov.org,(415) 235-4576,30.29,4,82,"Sloat Blvd San Francisco, CA (37.7363086, -122.48592744)",37.7363086,-122.48592744,size_huge,Lake Merced
94132,LAKE MERCED PARK,Regional Park,PSA 4,"Sheehy, Chuck",charles.sheehy@sfgov.org,(415) 218-2226,608.49,7,10,"Lake Merced Blvd, San Francisco, CA, (37.72183556, -122.49238175)",37.72183556,-122.49238175,size_huge,Lake Merced
94132,RANDOLPH/BRIGHT MINI PARK,Mini Park,PSA 4,"Sheehy, Chuck",charles.sheehy@sfgov.org,(415) 218-2226,0.09,11,16,"Randolph San Francisco, CA (37.71451213, -122.46369333)",37.71451213,-122.46369333,size_tiny,Lake Merced
94132,JUNIPERO SERRA PLAYGROUND,Neighborhood Park or Playground,PSA 4,"Sheehy, Chuck",charles.sheehy@sfgov.org,(415) 218-2226,1.53,7,13,"300 Stonecrest Dr San Francisco, CA (37.72482337, -122.47385187)",37.72482337,-122.47385187,size_average,Lake Merced
94132,MERCED HEIGHTS PLAYGROUND,Neighborhood Park or Playground,PSA 4,"Sheehy, Chuck",charles.sheehy@sfgov.org,(415) 218-2226,1.03,11,17,"Byxbee San Francisco, CA (37.71750931, -122.47028126)",37.71750931,-122.47028126,size_average,Lake Merced
94133,INA COOLBRITH MINI PARK,Mini Park,PSA 1,"Cleveland, Maggie",maggie.cleveland@sfgov.org,(415) 254-8014,0.8,3,145,"Vallejo San Francisco, CA (37.79816473, -122.41338371)",37.79816473,-122.41338371,size_huge,North beach/Fishermans Wharf
94133,JOE DIMAGGIO PLAYGROUND,Neighborhood Park or Playground,PSA 1,"Cleveland, Maggie",maggie.cleveland@sfgov.org,(415) 254-8014,2.52,3,150,"651 Lombard St San Francisco, CA (37.80248342, -122.41206911)",37.80248342,-122.41206911,size_large,North beach/Fishermans Wharf
94133,MICHELANGELO PLAYGROUND,Neighborhood Park or Playground,PSA 1,"Cleveland, Maggie",maggie.cleveland@sfgov.org,(415) 254-8014,0.44,3,148,"Greenwich San Francisco, CA (37.80109573, -122.41689916)",37.80109573,-122.41689916,size_small,North beach/Fishermans Wharf
94133,TELEGRAPH HILL/PIONEER PARK,Civic Plaza or Square,PSA 1,"Cleveland, Maggie",maggie.cleveland@sfgov.org,(415) 254-8014,4.89,3,149,"Telegraph Hill Blvd, San Francisco, CA, (37.80278413, -122.40583596)",37.80278413,-122.40583596,size_large,North beach/Fishermans Wharf
94133,WASHINGTON SQUARE,Civic Plaza or Square,PSA 1,"Cleveland, Maggie",maggie.cleveland@sfgov.org,(415) 254-8014,2.26,3,147,"Filbert San Francisco, CA (37.80083781, -122.41002829)",37.80083781,-122.41002829,size_large,North beach/Fishermans Wharf
94133,FAY PARK,Neighborhood Park or Playground,PSA 1,"Cleveland, Maggie",maggie.cleveland@sfgov.org,(415) 254-8014,0.25,3,184,"2366 Leavenworth St San Francisco, CA (37.80289031, -122.4178443)",37.80289031,-122.4178443,size_small,North beach/Fishermans Wharf
94133,CHESTNUT/KEARNY OPEN SPACE,Mini Park,PSA 1,"Cleveland, Maggie",maggie.cleveland@sfgov.org,(415) 254-8014,0.13,3,152,"Chestnut San Francisco, CA (37.80454125, -122.4070907)",37.80454125,-122.4070907,size_tiny,North beach/Fishermans Wharf
94133,BROADWAY TUNNEL EAST MINI PARK,Mini Park,PSA 1,"Cleveland, Maggie",maggie.cleveland@sfgov.org,(415) 254-8014,0.03,3,204,"BRdway San Francisco, CA (37.79699682, -122.412901)",37.79699682,-122.412901,size_tiny,North beach/Fishermans Wharf
94133,WOH HEI YUEN PARK,Neighborhood Park or Playground,PSA 1,"Cleveland, Maggie",maggie.cleveland@sfgov.org,(415) 254-8014,0.31,3,170,"922 Jackson St San Francisco, CA (37.79584858, -122.41033649)",37.79584858,-122.41033649,size_small,North beach/Fishermans Wharf
94134,VISITACION VALLEY PLAYGROUND,Neighborhood Park or Playground,PSA 3,"Taylor, Zack",zack.taylor@sfgov.org,(415) 601-7277,2.05,10,27,"251 Lel& St San Francisco, CA (37.71240126, -122.40908547)",37.71240126,-122.40908547,size_average,Visitacion Valley
94134,KELLOCH VELASCO MINI PARK,Mini Park,PSA 3,"Watkins, Robert",robert.watkins@sfgov.org,(415) 819-6138,1.74,10,26,"Kelloch San Francisco, CA (37.70854271, -122.41314877)",37.70854271,-122.41314877,size_average,Visitacion Valley
94134,HERZ PLAYGROUND,Neighborhood Park or Playground,PSA 3,"Taylor, Zack",zack.taylor@sfgov.org,(415) 601-7277,6.68,10,137671,"Hahn San Francisco, CA (37.71348444, -122.41659732)",37.71348444,-122.41659732,size_huge,Visitacion Valley
94134,PALEGA RECREATION CENTER,Neighborhood Park or Playground,PSA 3,"Watkins, Robert",robert.watkins@sfgov.org,(415) 819-6138,4.97,9,30,"500 Felton St San Francisco, CA (37.72934205, -122.40978)",37.72934205,-122.40978,size_large,Visitacion Valley
94134,LOUIS SUTTER PLAYGROUND,Neighborhood Park or Playground,PSA 3,"Taylor, Zack",zack.taylor@sfgov.org,(415) 601-7277,13.92,10,137665,"Wayland San Francisco, CA (37.72245982, -122.41392441)",37.72245982,-122.41392441,size_huge,Visitacion Valley
94134,VISITACION VALLEY GREENWAY,Neighborhood Park or Playground,PSA 3,"Taylor, Zack",zack.taylor@sfgov.org,(415) 601-7277,2.13,10,177,"Lel San Francisco, CA (37.71476638, -122.40613194)",37.71476638,-122.40613194,size_average,Visitacion Valley
94134,LITTLE HOLLYWOOD PARK,Neighborhood Park or Playground,PSA 3,"Watkins, Robert",robert.watkins@sfgov.org,(415) 819-6138,1.31,10,42,"Lathrop San Francisco, CA (37.70996909, -122.39820878)",37.70996909,-122.39820878,size_average,Visitacion Valley
95321,CAMP MATHER,Family Camp,Outside SF,"Castile, Steve",steve.castile@sfgov.org,(415) 841-0856,337.51,NA,10379,"32560 Mather Rd Groveland, CA (37.88160218, -119.85076005)",37.88160218,-119.85076005,size_huge,Groveland
NA,GOLDEN GATE PARK - Section 4,Regional Park,Golden Gate Park,"Stone, Andy",andy.stone@sfgov.org,(415) 666-7003,0,7,756668,NA,NA,NA,size_tiny,NA
NA,GOLDEN GATE PARK - Section 2,Regional Park,Golden Gate Park,"McCormick, James",james.mccormick@sfgov.org,(415) 666-7002,0,7,756666,NA,NA,NA,size_tiny,NA
NA,GOLDEN GATE PARK - Section 1,Regional Park,Golden Gate Park,"Martin, York (Acting)",york.martin@sfgov.org,(415) 753-7094,0,7,756665,NA,NA,NA,size_tiny,NA
NA,GOLDEN GATE PARK - Section 6,Regional Park,Golden Gate Park,"Deasy, Jon",jon.deasy@sfgov.org,(415) 753-7040,0,7,756670,NA,NA,NA,size_tiny,NA
NA,GOLDEN GATE PARK - Section 5,Regional Park,Golden Gate Park,"Giammattei, Joe",joe.giammattei@sfgov.org,(415) 666-7004,0,7,756669,NA,NA,NA,size_tiny,NA
NA,GOLDEN GATE PARK - Section 3 (Arboretum),Regional Park,Golden Gate Park,"Dennis, Brent",brent.dennis@sfgov.org,(415) 753-7271,0,7,756667,NA,NA,NA,size_tiny,NA
